{
  "type": "FeatureCollection",
  "features": [
    {
      "type": "Feature",
      "properties": {
        "norad_id": 30388,
        "name": "FENGYUN 1C DEB",
        "group": "fengyun-1c-debris",
        "lat": -77.64285239767625,
        "lon": 135.65923787898754,
        "alt_km": 993.0114585848933,
        "timestamp": "2025-12-04T10:51:50.381544+00:00",
        "meta_object_name": "FENGYUN 1C DEB",
        "meta_object_id": "1999-025ADB",
        "meta_epoch": "2025-12-03T18:40:47.197920",
        "meta_mean_motion": 14.1973458,
        "meta_eccentricity": 0.02223882,
        "meta_inclination": 98.6,
        "meta_ra_of_asc_node": 358.694,
        "meta_arg_of_pericenter": 88.6237,
        "meta_mean_anomaly": 327.5549,
        "meta_ephemeris_type": 0,
        "meta_classification_type": "U",
        "meta_norad_cat_id": 30388,
        "meta_element_set_no": 999,
        "meta_rev_at_epoch": 97305,
        "meta_bstar": 0.00059111574,
        "meta_mean_motion_dot": 1.559e-05,
        "meta_mean_motion_ddot": 0,
        "tle_line1": "1 30388U 99025ADB 25337.77832405  .00001559  00000+0  59112-3 0  9993",
        "tle_line2": "2 30388  98.6000 358.6940 0222388  88.6237 327.5549 14.19734580973052"
      },
      "geometry": {
        "type": "Point",
        "coordinates": [
          135.65923787898754,
          -77.64285239767625
        ]
      }
    },
    {
      "type": "Feature",
      "properties": {
        "norad_id": 30389,
        "name": "FENGYUN 1C DEB",
        "group": "fengyun-1c-debris",
        "lat": -54.1376310856968,
        "lon": 71.80471860088885,
        "alt_km": 748.2517806187343,
        "timestamp": "2025-12-04T10:51:50.381554+00:00",
        "meta_object_name": "FENGYUN 1C DEB",
        "meta_object_id": "1999-025ADC",
        "meta_epoch": "2025-12-03T19:02:48.927840",
        "meta_mean_motion": 14.43818606,
        "meta_eccentricity": 0.00136887,
        "meta_inclination": 98.8393,
        "meta_ra_of_asc_node": 58.6894,
        "meta_arg_of_pericenter": 244.9036,
        "meta_mean_anomaly": 236.3281,
        "meta_ephemeris_type": 0,
        "meta_classification_type": "U",
        "meta_norad_cat_id": 30389,
        "meta_element_set_no": 999,
        "meta_rev_at_epoch": 97657,
        "meta_bstar": 0.0036849609,
        "meta_mean_motion_dot": 0.00012537,
        "meta_mean_motion_ddot": 0,
        "tle_line1": "1 30389U 99025ADC 25337.79362185  .00012537  00000+0  36850-2 0  9990",
        "tle_line2": "2 30389  98.8393  58.6894 0013688 244.9036 236.3281 14.43818606976579"
      },
      "geometry": {
        "type": "Point",
        "coordinates": [
          71.80471860088885,
          -54.1376310856968
        ]
      }
    },
    {
      "type": "Feature",
      "properties": {
        "norad_id": 30390,
        "name": "FENGYUN 1C DEB",
        "group": "fengyun-1c-debris",
        "lat": -32.75512652720319,
        "lon": -124.1835292525065,
        "alt_km": 754.7613348846126,
        "timestamp": "2025-12-04T10:51:50.381565+00:00",
        "meta_object_name": "FENGYUN 1C DEB",
        "meta_object_id": "1999-025ADD",
        "meta_epoch": "2025-12-03T19:20:09.704832",
        "meta_mean_motion": 14.29585259,
        "meta_eccentricity": 0.00681728,
        "meta_inclination": 98.8238,
        "meta_ra_of_asc_node": 60.8966,
        "meta_arg_of_pericenter": 190.0524,
        "meta_mean_anomaly": 294.8057,
        "meta_ephemeris_type": 0,
        "meta_classification_type": "U",
        "meta_norad_cat_id": 30390,
        "meta_element_set_no": 999,
        "meta_rev_at_epoch": 97256,
        "meta_bstar": 0.003034345,
        "meta_mean_motion_dot": 7.925e-05,
        "meta_mean_motion_ddot": 0,
        "tle_line1": "1 30390U 99025ADD 25337.80566788  .00007925  00000+0  30343-2 0  9995",
        "tle_line2": "2 30390  98.8238  60.8966 0068172 190.0524 294.8057 14.29585259972569"
      },
      "geometry": {
        "type": "Point",
        "coordinates": [
          -124.1835292525065,
          -32.75512652720319
        ]
      }
    },
    {
      "type": "Feature",
      "properties": {
        "norad_id": 30391,
        "name": "FENGYUN 1C DEB",
        "group": "fengyun-1c-debris",
        "lat": 12.62897417057138,
        "lon": -153.44356972182356,
        "alt_km": 863.9445131270431,
        "timestamp": "2025-12-04T10:51:50.381575+00:00",
        "meta_object_name": "FENGYUN 1C DEB",
        "meta_object_id": "1999-025ADE",
        "meta_epoch": "2025-12-03T02:09:14.851008",
        "meta_mean_motion": 14.16166104,
        "meta_eccentricity": 0.00710631,
        "meta_inclination": 98.782,
        "meta_ra_of_asc_node": 23.2277,
        "meta_arg_of_pericenter": 289.8875,
        "meta_mean_anomaly": 133.4158,
        "meta_ephemeris_type": 0,
        "meta_classification_type": "U",
        "meta_norad_cat_id": 30391,
        "meta_element_set_no": 999,
        "meta_rev_at_epoch": 96742,
        "meta_bstar": 0.0014859257,
        "meta_mean_motion_dot": 2.969e-05,
        "meta_mean_motion_ddot": 0,
        "tle_line1": "1 30391U 99025ADE 25337.08975522  .00002969  00000+0  14859-2 0  9993",
        "tle_line2": "2 30391  98.7820  23.2277 0071063 289.8875 133.4158 14.16166104967422"
      },
      "geometry": {
        "type": "Point",
        "coordinates": [
          -153.44356972182356,
          12.62897417057138
        ]
      }
    },
    {
      "type": "Feature",
      "properties": {
        "norad_id": 30392,
        "name": "FENGYUN 1C DEB",
        "group": "fengyun-1c-debris",
        "lat": 59.51008771091924,
        "lon": -17.966039816122777,
        "alt_km": 761.3916085346909,
        "timestamp": "2025-12-04T10:51:50.381585+00:00",
        "meta_object_name": "FENGYUN 1C DEB",
        "meta_object_id": "1999-025ADF",
        "meta_epoch": "2025-12-03T21:29:46.055616",
        "meta_mean_motion": 14.07418179,
        "meta_eccentricity": 0.01814973,
        "meta_inclination": 98.7862,
        "meta_ra_of_asc_node": 356.7203,
        "meta_arg_of_pericenter": 21.8061,
        "meta_mean_anomaly": 97.0369,
        "meta_ephemeris_type": 0,
        "meta_classification_type": "U",
        "meta_norad_cat_id": 30392,
        "meta_element_set_no": 999,
        "meta_rev_at_epoch": 96546,
        "meta_bstar": 0.0010499847,
        "meta_mean_motion_dot": 2.01e-05,
        "meta_mean_motion_ddot": 0,
        "tle_line1": "1 30392U 99025ADF 25337.89567194  .00002010  00000+0  10500-2 0  9991",
        "tle_line2": "2 30392  98.7862 356.7203 0181497  21.8061  97.0369 14.07418179965469"
      },
      "geometry": {
        "type": "Point",
        "coordinates": [
          -17.966039816122777,
          59.51008771091924
        ]
      }
    },
    {
      "type": "Feature",
      "properties": {
        "norad_id": 30393,
        "name": "FENGYUN 1C DEB",
        "group": "fengyun-1c-debris",
        "lat": 43.913435100860895,
        "lon": 27.29748407874123,
        "alt_km": 920.0070828655244,
        "timestamp": "2025-12-04T10:51:50.381595+00:00",
        "meta_object_name": "FENGYUN 1C DEB",
        "meta_object_id": "1999-025ADG",
        "meta_epoch": "2025-12-03T10:40:28.999776",
        "meta_mean_motion": 13.98972451,
        "meta_eccentricity": 0.00695788,
        "meta_inclination": 99.1649,
        "meta_ra_of_asc_node": 35.2314,
        "meta_arg_of_pericenter": 285.671,
        "meta_mean_anomaly": 85.1033,
        "meta_ephemeris_type": 0,
        "meta_classification_type": "U",
        "meta_norad_cat_id": 30393,
        "meta_element_set_no": 999,
        "meta_rev_at_epoch": 96200,
        "meta_bstar": 0.00032073801,
        "meta_mean_motion_dot": 4.27e-06,
        "meta_mean_motion_ddot": 0,
        "tle_line1": "1 30393U 99025ADG 25337.44478009  .00000427  00000+0  32074-3 0  9990",
        "tle_line2": "2 30393  99.1649  35.2314 0069578 285.6710  85.1033 13.98972451962006"
      },
      "geometry": {
        "type": "Point",
        "coordinates": [
          27.29748407874123,
          43.913435100860895
        ]
      }
    },
    {
      "type": "Feature",
      "properties": {
        "norad_id": 30394,
        "name": "FENGYUN 1C DEB",
        "group": "fengyun-1c-debris",
        "lat": 69.28281951841241,
        "lon": -147.3972007280058,
        "alt_km": 838.38647450606,
        "timestamp": "2025-12-04T10:51:50.381605+00:00",
        "meta_object_name": "FENGYUN 1C DEB",
        "meta_object_id": "1999-025ADH",
        "meta_epoch": "2025-12-03T16:00:13.133952",
        "meta_mean_motion": 13.95773945,
        "meta_eccentricity": 0.00899326,
        "meta_inclination": 99.4356,
        "meta_ra_of_asc_node": 5.7151,
        "meta_arg_of_pericenter": 125.7941,
        "meta_mean_anomaly": 356.374,
        "meta_ephemeris_type": 0,
        "meta_classification_type": "U",
        "meta_norad_cat_id": 30394,
        "meta_element_set_no": 999,
        "meta_rev_at_epoch": 95977,
        "meta_bstar": 0.0004471296,
        "meta_mean_motion_dot": 5.85e-06,
        "meta_mean_motion_ddot": 0,
        "tle_line1": "1 30394U 99025ADH 25337.66681868  .00000585  00000+0  44713-3 0  9992",
        "tle_line2": "2 30394  99.4356   5.7151 0089932 125.7941 356.3740 13.95773945959774"
      },
      "geometry": {
        "type": "Point",
        "coordinates": [
          -147.3972007280058,
          69.28281951841241
        ]
      }
    }
  ]
}